ORBCOMM FM24 [-]        
1 25478U 98053D   23260.49504319  .00001849  00000+0  69769-3 0  9990
2 25478  45.0098  48.4426 0001491 226.0472 134.0252 14.34630429305629
ORBCOMM FM26 [-]        
1 25480U 98053F   23260.45560110  .00001605  00000+0  61703-3 0  9990
2 25480  45.0088  40.1196 0005096 303.5494  56.4866 14.34213678305861
ORBCOMM FM27 [+]        
1 25481U 98053G   23260.44281698  .00001804  00000+0  68222-3 0  9995
2 25481  45.0075  47.1744 0001168 155.8352 204.2550 14.34589286305843
ORBCOMM FM28 [-]        
1 25482U 98053H   23260.50686923  .00001559  00000+0  59039-3 0  9996
2 25482  45.0086 346.1915 0003548 309.6967  50.3567 14.35097399306516
ORBCOMM FM30 [-]        
1 25980U 99065A   23260.30040853  .00001598  00000+0  61310-3 0  9995
2 25980  45.0313 226.1453 0005614  33.1968 326.9231 14.34335661242630
ORBCOMM FM32 [+]        
1 25982U 99065C   23260.28755444  .00001453  00000+0  57333-3 0  9993
2 25982  45.0156 232.1578 0004004  60.1480 299.9764 14.33315688242842
